NORAD_CAT_ID,OBJECT_NAME,OBJECT_TYPE,EPOCH,MEAN_MOTION,ECCENTRICITY,INCLINATION,RA_OF_ASC_NODE,ARG_OF_PERICENTER,MEAN_ANOMALY,BSTAR,MEAN_MOTION_DOT,MEAN_MOTION_DDOT,TLE_LINE0,TLE_LINE1,TLE_LINE2,SEMIMAJOR_AXIS,PERIOD,APOGEE,PERIGEE,DECAYED
52356.0,STARLINK-3801,PAYLOAD,2023-10-15 09:18:42,15.08838191,0.0001303,53.2158,173.0209,85.4699,274.6442,0.00092967,0.00014538,0.0,0 STARLINK-3801,1 52356U 22045AB  23288.38798967  .00014538  00000-0  92967-3 0  9991,2 52356  53.2158 173.0209 0001303  85.4699 274.6442 15.08838191 83494,6917.886,95.438,540.652,538.85,0.0
52356.0,STARLINK-3801,PAYLOAD,2023-10-15 20:26:24,15.08839529,0.0001257,53.2147,170.9413,90.5219,269.5917,0.00078257,0.00012188,0.0,0 STARLINK-3801,1 52356U 22045AB  23288.85167244  .00012188  00000-0  78257-3 0  9996,2 52356  53.2147 170.9413 0001257  90.5219 269.5917 15.08839529 83562,6917.882,95.438,540.616,538.877,0.0
52356.0,STARLINK-3801,PAYLOAD,2023-10-15 22:01:47,15.08843177,0.0001283,53.2147,170.6436,91.1689,268.945,0.00077791,0.00012115,0.0,0 STARLINK-3801,1 52356U 22045AB  23288.91791199  .00012115  00000-0  77791-3 0  9997,2 52356  53.2147 170.6436 0001283  91.1689 268.9450 15.08843177 83571,6917.871,95.437,540.623,538.848,0.0
52356.0,STARLINK-3801,PAYLOAD,2023-10-16 09:09:29,15.08850791,0.0001265,53.2147,168.5614,98.6349,261.4786,0.00079378,0.00012371,0.0,0 STARLINK-3801,1 52356U 22045AB  23289.38159054  .00012371  00000-0  79378-3 0  9994,2 52356  53.2147 168.5614 0001265  98.6349 261.4786 15.08850791 83648,6917.847,95.437,540.588,538.837,0.0
52356.0,STARLINK-3801,PAYLOAD,2023-10-16 18:41:48,15.08847155,0.0001307,53.2145,166.7771,92.2491,267.8651,0.0003813,5.787e-05,0.0,0 STARLINK-3801,1 52356U 22045AB  23289.77903004  .00005787  00000-0  38130-3 0  9993,2 52356  53.2145 166.7771 0001307  92.2491 267.8651 15.08847155 83703,6917.859,95.437,540.628,538.819,0.0
52356.0,STARLINK-3801,PAYLOAD,2023-10-17 09:00:16,15.08850793,0.0001443,53.2149,164.0997,87.2743,272.8414,0.00036254,5.488e-05,0.0,0 STARLINK-3801,1 52356U 22045AB  23290.37518788  .00005488  00000-0  36254-3 0  9995,2 52356  53.2149 164.0997 0001443  87.2743 272.8414 15.08850793 83797,6917.847,95.437,540.711,538.714,0.0
52356.0,STARLINK-3801,PAYLOAD,2023-10-18 00:54:07,15.08843592,0.0001501,53.2142,161.1264,87.2262,272.8902,0.00014498,2.02e-05,0.0,0 STARLINK-3801,1 52356U 22045AB  23291.03758851  .00002020  00000-0  14498-3 0  9991,2 52356  53.2142 161.1264 0001501  87.2262 272.8902 15.08843592 83898,6917.869,95.437,540.773,538.696,0.0
52356.0,STARLINK-3801,PAYLOAD,2023-10-18 08:51:03,15.08841811,0.0001562,53.2145,159.6397,83.8406,276.2764,0.00010891,1.446e-05,0.0,0 STARLINK-3801,1 52356U 22045AB  23291.36879093  .00001446  00000-0  10891-3 0  9993,2 52356  53.2145 159.6397 0001562  83.8406 276.2764 15.08841811 83941,6917.875,95.437,540.82,538.659,0.0
52356.0,STARLINK-3801,PAYLOAD,2023-10-18 21:34:08,15.0884299,0.0001242,53.216,157.259,92.8757,267.2377,0.00015773,2.223e-05,0.0,0 STARLINK-3801,1 52356U 22045AB  23291.89871039  .00002223  00000-0  15773-3 0  9991,2 52356  53.2160 157.2590 0001242  92.8757 267.2377 15.08842990 84020,6917.871,95.437,540.595,538.877,0.0
52356.0,STARLINK-3801,PAYLOAD,2023-10-19 00:44:54,15.08853173,0.0001038,53.2172,156.6646,104.4982,255.6125,0.00033675,5.078e-05,0.0,0 STARLINK-3801,1 52356U 22045AB  23292.03118515  .00005078  00000-0  33675-3 0  9993,2 52356  53.2172 156.6646 0001038 104.4982 255.6125 15.08853173 84040,6917.84,95.437,540.423,538.987,0.0
52356.0,STARLINK-3801,PAYLOAD,2023-10-19 18:14:08,15.08852012,3.72e-05,53.2174,153.394,105.3011,254.8022,0.00038213,5.801e-05,0.0,0 STARLINK-3801,1 52356U 22045AB  23292.75982274  .00005801  00000-0  38213-3 0  9990,2 52356  53.2174 153.3940 0000372 105.3011 254.8022 15.08852012 84156,6917.844,95.437,539.966,539.451,0.0
52356.0,STARLINK-3801,PAYLOAD,2023-10-20 00:35:40,15.08865568,8.82e-05,53.2166,152.2074,76.9675,283.1416,0.00066722,0.00010354,0.0,0 STARLINK-3801,1 52356U 22045AB  23293.02477830  .00010354  00000-0  66722-3 0  9993,2 52356  53.2166 152.2074 0000882  76.9675 283.1416 15.08865568 84194,6917.802,95.436,540.277,539.057,0.0
52356.0,STARLINK-3801,PAYLOAD,2023-10-20 14:54:09,15.08836797,8.75e-05,53.2161,149.5289,86.9431,273.1662,-5.8451e-07,-2.97e-06,0.0,0 STARLINK-3801,1 52356U 22045AB  23293.62094763 -.00000297  00000-0 -58451-6 0  9999,2 52356  53.2161 149.5289 0000875  86.9431 273.1662 15.08836797 84283,6917.89,95.438,540.36,539.15,0.0
52356.0,STARLINK-3801,PAYLOAD,2023-10-20 21:15:42,15.08839871,0.0001398,53.2155,148.3369,106.8813,253.2333,-1.102e-05,-4.63e-06,0.0,0 STARLINK-3801,1 52356U 22045AB  23293.88590663 -.00000463  00000-0 -11020-4 0  9991,2 52356  53.2155 148.3369 0001398 106.8813 253.2333 15.08839871 84324,6917.881,95.438,540.713,538.779,0.0
52356.0,STARLINK-3801,PAYLOAD,2023-10-21 00:26:28,15.08838334,0.000138,53.2151,147.7436,104.1192,255.9954,-3.7185e-05,-8.8e-06,0.0,0 STARLINK-3801,1 52356U 22045AB  23294.01838742 -.00000880  00000-0 -37185-4 0  9993,2 52356  53.2151 147.7436 0001380 104.1192 255.9954 15.08838334 84343,6917.885,95.438,540.705,538.796,0.0
52356.0,STARLINK-3801,PAYLOAD,2023-10-21 21:06:29,15.08843552,0.0001248,53.2153,143.8791,93.5204,266.5931,2.5778e-05,1.22e-06,0.0,0 STARLINK-3801,1 52356U 22045AB  23294.87950648  .00000122  00000-0  25778-4 0  9999,2 52356  53.2153 143.8791 0001248  93.5204 266.5931 15.08843552 84479,6917.87,95.437,540.598,538.871,0.0
52356.0,STARLINK-3801,PAYLOAD,2023-10-22 13:00:21,15.08832705,0.0001433,53.2163,140.9099,100.331,259.7844,6.2261e-05,7.03e-06,0.0,0 STARLINK-3801,1 52356U 22045AB  23295.54191372  .00000703  00000-0  62261-4 0  9998,2 52356  53.2163 140.9099 0001433 100.3310 259.7844 15.08832705 84576,6917.903,95.438,540.759,538.776,0.0
52356.0,STARLINK-3801,PAYLOAD,2023-10-22 20:57:17,15.08824515,0.0001633,53.2169,139.4216,100.9104,259.2072,-2.9548e-06,-3.35e-06,0.0,0 STARLINK-3801,1 52356U 22045AB  23295.87312215 -.00000335  00000-0 -29548-5 0  9990,2 52356  53.2169 139.4216 0001633 100.9104 259.2072 15.08824515 84629,6917.928,95.439,540.922,538.663,0.0
52356.0,STARLINK-3801,PAYLOAD,2023-10-23 06:29:36,15.08832561,0.0001381,53.2148,137.6353,93.6787,266.4363,4.2367e-05,3.86e-06,0.0,0 STARLINK-3801,1 52356U 22045AB  23296.27055966  .00000386  00000-0  42367-4 0  9999,2 52356  53.2148 137.6353 0001381  93.6787 266.4363 15.08832561 84682,6917.903,95.438,540.723,538.813,0.0
52356.0,STARLINK-3801,PAYLOAD,2023-10-23 20:48:04,15.0884135,0.0001354,53.2157,134.9581,89.5668,270.5479,0.00011167,1.49e-05,0.0,0 STARLINK-3801,1 52356U 22045AB  23296.86671834  .00001490  00000-0  11167-3 0  9992,2 52356  53.2157 134.9581 0001354  89.5668 270.5479 15.08841350 84777,6917.876,95.437,540.678,538.805,0.0
52356.0,STARLINK-3801,PAYLOAD,2023-10-24 04:45:00,15.08843004,0.0001348,53.2156,133.471,87.715,272.3997,0.00011224,1.499e-05,0.0,0 STARLINK-3801,1 52356U 22045AB  23297.19791703  .00001499  00000-0  11224-3 0  9990,2 52356  53.2156 133.4710 0001348  87.7150 272.3997 15.08843004 84822,6917.871,95.437,540.669,538.804,0.0
52356.0,STARLINK-3801,PAYLOAD,2023-10-24 14:17:18,15.08839891,0.0001313,53.2155,131.6871,87.1394,272.9748,0.00028364,4.229e-05,0.0,0 STARLINK-3801,1 52356U 22045AB  23297.59535791  .00004229  00000-0  28364-3 0  9994,2 52356  53.2155 131.6871 0001313  87.1394 272.9748 15.08839891 84880,6917.881,95.438,540.654,538.837,0.0
52356.0,STARLINK-3801,PAYLOAD,2023-10-25 14:08:05,15.08851772,0.0001322,53.2146,127.2268,83.3091,276.8051,0.00020312,2.947e-05,0.0,0 STARLINK-3801,1 52356U 22045AB  23298.58895072  .00002947  00000-0  20312-3 0  9995,2 52356  53.2146 127.2268 0001322  83.3091 276.8051 15.08851772 85033,6917.844,95.437,540.624,538.795,0.0
52356.0,STARLINK-3801,PAYLOAD,2023-10-26 12:23:29,15.08843503,0.0001415,53.2146,123.0631,86.2764,273.839,1.0831e-05,-1.16e-06,0.0,0 STARLINK-3801,1 52356U 22045AB  23299.51631141 -.00000116  00000-0  10831-4 0  9997,2 52356  53.2146 123.0631 0001415  86.2764 273.8390 15.08843503 85174,6917.87,95.437,540.714,538.756,0.0
52356.0,STARLINK-3801,PAYLOAD,2023-10-26 13:58:52,15.08844051,0.0001388,53.2146,122.766,89.3356,270.7795,3.6695e-05,2.96e-06,0.0,0 STARLINK-3801,1 52356U 22045AB  23299.58255115  .00000296  00000-0  36695-4 0  9991,2 52356  53.2146 122.7660 0001388  89.3356 270.7795 15.08844051 85187,6917.868,95.437,540.693,538.773,0.0
52356.0,STARLINK-3801,PAYLOAD,2023-10-26 20:20:24,15.0884546,0.0001404,53.2149,121.5765,95.1463,264.9689,2.9661e-05,1.84e-06,0.0,0 STARLINK-3801,1 52356U 22045AB  23299.84750981  .00000184  00000-0  29661-4 0  9992,2 52356  53.2149 121.5765 0001404  95.1463 264.9689 15.08845460 85223,6917.864,95.437,540.7,538.757,0.0
52356.0,STARLINK-3801,PAYLOAD,2023-10-27 05:52:43,15.08844171,0.0001324,53.2148,119.7924,87.8734,272.241,2.5153e-05,1.12e-06,0.0,0 STARLINK-3801,1 52356U 22045AB  23300.24495004  .00000112  00000-0  25153-4 0  9994,2 52356  53.2148 119.7924 0001324  87.8734 272.2410 15.08844171 85286,6917.868,95.437,540.649,538.817,0.0
52356.0,STARLINK-3801,PAYLOAD,2023-10-27 18:35:48,15.08845874,0.0001343,53.2147,117.4134,86.663,273.4515,0.00012192,1.653e-05,0.0,0 STARLINK-3801,1 52356U 22045AB  23300.77486893  .00001653  00000-0  12192-3 0  9997,2 52356  53.2147 117.4134 0001343  86.6630 273.4515 15.08845874 85365,6917.862,95.437,540.657,538.798,0.0
52356.0,STARLINK-3801,PAYLOAD,2023-10-27 21:46:34,15.08848405,0.0001357,53.2147,116.8187,86.2274,273.8873,0.00015027,2.105e-05,0.0,0 STARLINK-3801,1 52356U 22045AB  23300.90734759  .00002105  00000-0  15027-3 0  9992,2 52356  53.2147 116.8187 0001357  86.2274 273.8873 15.08848405 85387,6917.855,95.437,540.658,538.781,0.0
52356.0,STARLINK-3801,PAYLOAD,2023-10-28 12:05:03,15.08835067,0.0001365,53.2144,114.1416,84.6963,275.4185,8.8791e-05,1.125e-05,0.0,0 STARLINK-3801,1 52356U 22045AB  23301.50351534  .00001125  00000-0  88791-4 0  9995,2 52356  53.2144 114.1416 0001365  84.6963 275.4185 15.08835067 85470,6917.895,95.438,540.705,538.816,0.0
